{"type": "FeatureCollection", "features": [ {"type": "Feature", "properties": {"norad_id": 30283, "name": "FENGYUN 1C DEB", "group": "fengyun-1c-debris", "lat": 7.7753202129037025, "lon": 159.38458021597486, "alt_km": 958.8337602221727, "timestamp": "2025-12-10T09:57:44.974477+00:00", "meta": {"OBJECT_NAME": "FENGYUN 1C DEB", "OBJECT_ID": "1999-025YU", "EPOCH": "2025-12-09T20:00:55.180800", "MEAN_MOTION": 14.01973968, "ECCENTRICITY": 0.018515, "INCLINATION": 98.8671, "RA_OF_ASC_NODE": 337.5978, "ARG_OF_PERICENTER": 51.3569, "MEAN_ANOMALY": 67.4363, "EPHEMERIS_TYPE": 0, "CLASSIFICATION_TYPE": "U", "NORAD_CAT_ID": 30283, "ELEMENT_SET_NO": 999, "REV_AT_EPOCH": 96650, "BSTAR": 0.00013177, "MEAN_MOTION_DOT": 1.91e-06, "MEAN_MOTION_DDOT": 0}, "tle": {"line1": "1 30283U 99025YU  25343.83397200  .00000191  00000+0  13177-3 0  9992", "line2": "2 30283  98.8671 337.5978 0185150  51.3569  67.4363 14.01973968966501"}}, "geometry": {"type": "Point", "coordinates": [159.38458021597486, 7.7753202129037025]}}, {"type": "Feature", "properties": {"norad_id": 30284, "name": "FENGYUN 1C DEB", "group": "fengyun-1c-debris", "lat": 12.459393092264758, "lon": -125.20036532924516, "alt_km": 780.2550340199195, "timestamp": "2025-12-10T09:57:44.974487+00:00", "meta": {"OBJECT_NAME": "FENGYUN 1C DEB", "OBJECT_ID": "1999-025YV", "EPOCH": "2025-12-09T03:12:53.527104", "MEAN_MOTION": 14.28720845, "ECCENTRICITY": 0.00379665, "INCLINATION": 98.7201, "RA_OF_ASC_NODE": 51.5759, "ARG_OF_PERICENTER": 119.1551, "MEAN_ANOMALY": 302.0327, "EPHEMERIS_TYPE": 0, "CLASSIFICATION_TYPE": "U", "NORAD_CAT_ID": 30284, "ELEMENT_SET_NO": 999, "REV_AT_EPOCH": 97464, "BSTAR": 0.0017826061, "MEAN_MOTION_DOT": 4.478e-05, "MEAN_MOTION_DDOT": 0}, "tle": {"line1": "1 30284U 99025YV  25343.13395286  .00004478  00000+0  17826-2 0  9994", "line2": "2 30284  98.7201  51.5759 0037966 119.1551 302.0327 14.28720845974640"}}, "geometry": {"type": "Point", "coordinates": [-125.20036532924516, 12.459393092264758]}}, {"type": "Feature", "properties": {"norad_id": 30286, "name": "FENGYUN 1C DEB", "group": "fengyun-1c-debris", "lat": 10.360283322221326, "lon": -12.755746991517638, "alt_km": 880.54185460998, "timestamp": "2025-12-10T09:57:44.974498+00:00", "meta": {"OBJECT_NAME": "FENGYUN 1C DEB", "OBJECT_ID": "1999-025YX", "EPOCH": "2025-12-09T10:55:16.288032", "MEAN_MOTION": 14.1272173, "ECCENTRICITY": 0.00645905, "INCLINATION": 98.69, "RA_OF_ASC_NODE": 347.915, "ARG_OF_PERICENTER": 142.0231, "MEAN_ANOMALY": 29.2425, "EPHEMERIS_TYPE": 0, "CLASSIFICATION_TYPE": "U", "NORAD_CAT_ID": 30286, "ELEMENT_SET_NO": 999, "REV_AT_EPOCH": 97412, "BSTAR": 0.00014108085, "MEAN_MOTION_DOT": 2.25e-06, "MEAN_MOTION_DDOT": 0}, "tle": {"line1": "1 30286U 99025YX  25343.45504963  .00000225  00000+0  14108-3 0  9992", "line2": "2 30286  98.6900 347.9150 0064590 142.0231  29.2425 14.12721730974124"}}, "geometry": {"type": "Point", "coordinates": [-12.755746991517638, 10.360283322221326]}}, {"type": "Feature", "properties": {"norad_id": 30287, "name": "FENGYUN 1C DEB", "group": "fengyun-1c-debris", "lat": -51.34658783791716, "lon": -172.0887951272545, "alt_km": 1261.8627649443952, "timestamp": "2025-12-10T09:57:44.974508+00:00", "meta": {"OBJECT_NAME": "FENGYUN 1C DEB", "OBJECT_ID": "1999-025YY", "EPOCH": "2025-12-10T02:03:12.987072", "MEAN_MOTION": 13.68576571, "ECCENTRICITY": 0.0413481, "INCLINATION": 98.6377, "RA_OF_ASC_NODE": 18.5705, "ARG_OF_PERICENTER": 19.3765, "MEAN_ANOMALY": 32.7049, "EPHEMERIS_TYPE": 0, "CLASSIFICATION_TYPE": "U", "NORAD_CAT_ID": 30287, "ELEMENT_SET_NO": 999, "REV_AT_EPOCH": 93822, "BSTAR": 0.0013215, "MEAN_MOTION_DOT": 2.026e-05, "MEAN_MOTION_DDOT": 0}, "tle": {"line1": "1 30287U 99025YY  25344.08556698  .00002026  00000+0  13215-2 0  9993", "line2": "2 30287  98.6377  18.5705 0413481  19.3765  32.7049 13.68576571938228"}}, "geometry": {"type": "Point", "coordinates": [-172.0887951272545, -51.34658783791716]}}, {"type": "Feature", "properties": {"norad_id": 30288, "name": "FENGYUN 1C DEB", "group": "fengyun-1c-debris", "lat": -20.10125633185569, "lon": 69.34502716028724, "alt_km": 774.019054217144, "timestamp": "2025-12-10T09:57:44.974518+00:00", "meta": {"OBJECT_NAME": "FENGYUN 1C DEB", "OBJECT_ID": "1999-025YZ", "EPOCH": "2025-12-09T04:09:00.961920", "MEAN_MOTION": 14.32528485, "ECCENTRICITY": 0.0020367, "INCLINATION": 99.3948, "RA_OF_ASC_NODE": 64.5263, "ARG_OF_PERICENTER": 332.7584, "MEAN_ANOMALY": 84.4411, "EPHEMERIS_TYPE": 0, "CLASSIFICATION_TYPE": "U", "NORAD_CAT_ID": 30288, "ELEMENT_SET_NO": 999, "REV_AT_EPOCH": 97518, "BSTAR": 0.0021227143, "MEAN_MOTION_DOT": 5.722e-05, "MEAN_MOTION_DDOT": 0}, "tle": {"line1": "1 30288U 99025YZ  25343.17292780  .00005722  00000+0  21227-2 0  9990", "line2": "2 30288  99.3948  64.5263 0020367 332.7584  84.4411 14.32528485975185"}}, "geometry": {"type": "Point", "coordinates": [69.34502716028724, -20.10125633185569]}}, {"type": "Feature", "properties": {"norad_id": 30289, "name": "FENGYUN 1C DEB", "group": "fengyun-1c-debris", "lat": 13.614702610796325, "lon": -96.95712265104865, "alt_km": 833.1850658122248, "timestamp": "2025-12-10T09:57:44.974528+00:00", "meta": {"OBJECT_NAME": "FENGYUN 1C DEB", "OBJECT_ID": "1999-025ZA", "EPOCH": "2025-12-09T03:25:20.056800", "MEAN_MOTION": 14.25771531, "ECCENTRICITY": 0.00371175, "INCLINATION": 98.9269, "RA_OF_ASC_NODE": 79.5658, "ARG_OF_PERICENTER": 340.9428, "MEAN_ANOMALY": 137.3555, "EPHEMERIS_TYPE": 0, "CLASSIFICATION_TYPE": "U", "NORAD_CAT_ID": 30289, "ELEMENT_SET_NO": 999, "REV_AT_EPOCH": 97030, "BSTAR": 0.002376432, "MEAN_MOTION_DOT": 5.644e-05, "MEAN_MOTION_DDOT": 0}, "tle": {"line1": "1 30289U 99025ZA  25343.14259325  .00005644  00000+0  23764-2 0  9997", "line2": "2 30289  98.9269  79.5658 0037117 340.9428 137.3555 14.25771531970300"}}, "geometry": {"type": "Point", "coordinates": [-96.95712265104865, 13.614702610796325]}}, {"type": "Feature", "properties": {"norad_id": 30290, "name": "FENGYUN 1C DEB", "group": "fengyun-1c-debris", "lat": -33.555814579687286, "lon": -103.6030296630797, "alt_km": 662.8421706267318, "timestamp": "2025-12-10T09:57:44.974538+00:00", "meta": {"OBJECT_NAME": "FENGYUN 1C DEB", "OBJECT_ID": "1999-025ZB", "EPOCH": "2025-12-09T19:01:08.200128", "MEAN_MOTION": 14.74583312, "ECCENTRICITY": 0.0016452, "INCLINATION": 102.6219, "RA_OF_ASC_NODE": 83.9788, "ARG_OF_PERICENTER": 60.2792, "MEAN_ANOMALY": 90.3359, "EPHEMERIS_TYPE": 0, "CLASSIFICATION_TYPE": "U", "NORAD_CAT_ID": 30290, "ELEMENT_SET_NO": 999, "REV_AT_EPOCH": 97835, "BSTAR": 0.0070826, "MEAN_MOTION_DOT": 0.00047552, "MEAN_MOTION_DDOT": 0}, "tle": {"line1": "1 30290U 99025ZB  25343.79245602  .00047552  00000+0  70826-2 0  9998", "line2": "2 30290 102.6219  83.9788 0016452  60.2792  90.3359 14.74583312978353"}}, "geometry": {"type": "Point", "coordinates": [-103.6030296630797, -33.555814579687286]}}, {"type": "Feature", "properties": {"norad_id": 30291, "name": "FENGYUN 1C DEB", "group": "fengyun-1c-debris", "lat": 68.34301246827711, "lon": 72.1637180238511, "alt_km": 693.3775902105617, "timestamp": "2025-12-10T09:57:44.974550+00:00", "meta": {"OBJECT_NAME": "FENGYUN 1C DEB", "OBJECT_ID": "1999-025ZC", "EPOCH": "2025-12-09T05:58:20.259840", "MEAN_MOTION": 14.55081595, "ECCENTRICITY": 0.0112233, "INCLINATION": 97.2317, "RA_OF_ASC_NODE": 232.5044, "ARG_OF_PERICENTER": 29.9597, "MEAN_ANOMALY": 93.6015, "EPHEMERIS_TYPE": 0, "CLASSIFICATION_TYPE": "U", "NORAD_CAT_ID": 30291, "ELEMENT_SET_NO": 999, "REV_AT_EPOCH": 97657, "BSTAR": 0.0037379, "MEAN_MOTION_DOT": 0.00017545, "MEAN_MOTION_DDOT": 0}, "tle": {"line1": "1 30291U 99025ZC  25343.24884560  .00017545  00000+0  37379-2 0  9996", "line2": "2 30291  97.2317 232.5044 0112233  29.9597  93.6015 14.55081595976570"}}, "geometry": {"type": "Point", "coordinates": [72.1637180238511, 68.34301246827711]}}, {"type": "Feature", "properties": {"norad_id": 30293, "name": "FENGYUN 1C DEB", "group": "fengyun-1c-debris", "lat": 55.070534441815816, "lon": 161.61536169692315, "alt_km": 700.8222073410425, "timestamp": "2025-12-10T09:57:44.974560+00:00", "meta": {"OBJECT_NAME": "FENGYUN 1C DEB", "OBJECT_ID": "1999-025ZE", "EPOCH": "2025-12-10T00:27:08.817120", "MEAN_MOTION": 14.48916748, "ECCENTRICITY": 0.0076671, "INCLINATION": 99.2548, "RA_OF_ASC_NODE": 174.683, "ARG_OF_PERICENTER": 122.7532, "MEAN_ANOMALY": 28.5581, "EPHEMERIS_TYPE": 0, "CLASSIFICATION_TYPE": "U", "NORAD_CAT_ID": 30293, "ELEMENT_SET_NO": 999, "REV_AT_EPOCH": 98937, "BSTAR": 0.001149, "MEAN_MOTION_DOT": 4.462e-05, "MEAN_MOTION_DDOT": 0}, "tle": {"line1": "1 30293U 99025ZE  25344.01885205  .00004462  00000+0  11490-2 0  9991", "line2": "2 30293  99.2548 174.6830 0076671 122.7532  28.5581 14.48916748989371"}}, "geometry": {"type": "Point", "coordinates": [161.61536169692315, 55.070534441815816]}}, {"type": "Feature", "properties": {"norad_id": 30294, "name": "FENGYUN 1C DEB", "group": "fengyun-1c-debris", "lat": 79.06914792590015, "lon": -157.71141671586366, "alt_km": 875.7590839457953, "timestamp": "2025-12-10T09:57:44.974570+00:00", "meta": {"OBJECT_NAME": "FENGYUN 1C DEB", "OBJECT_ID": "1999-025ZF", "EPOCH": "2025-12-10T04:45:37.254240", "MEAN_MOTION": 14.34937935, "ECCENTRICITY": 0.0197719, "INCLINATION": 98.3562, "RA_OF_ASC_NODE": 332.5214, "ARG_OF_PERICENTER": 317.2941, "MEAN_ANOMALY": 99.2313, "EPHEMERIS_TYPE": 0, "CLASSIFICATION_TYPE": "U", "NORAD_CAT_ID": 30294, "ELEMENT_SET_NO": 999, "REV_AT_EPOCH": 98500, "BSTAR": 0.00066163, "MEAN_MOTION_DOT": 2.298e-05, "MEAN_MOTION_DDOT": 0}, "tle": {"line1": "1 30294U 99025ZF  25344.19834785  .00002298  00000+0  66163-3 0  9991", "line2": "2 30294  98.3562 332.5214 0197719 317.2941  99.2313 14.34937935985001"}}, "geometry": {"type": "Point", "coordinates": [-157.71141671586366, 79.06914792590015]}}]}